CCSDS_OMM_VERS = 2.0
CREATION_DATE  = 
ORIGINATOR     = 

OBJECT_NAME    = ISS (ZARYA)
OBJECT_ID      = 1998-067A
CENTER_NAME    = EARTH
REF_FRAME      = TEME
TIME_SYSTEM    = UTC
MEAN_ELEMENT_THEORY = SGP/SGP4

EPOCH          = 2025-12-07T21:32:16.385568
MEAN_MOTION    = 15.49404055
ECCENTRICITY   = .0003425
INCLINATION    = 51.6302
RA_OF_ASC_NODE = 166.4547
ARG_OF_PERICENTER = 217.7386
MEAN_ANOMALY   = 142.3363

EPHEMERIS_TYPE = 0
CLASSIFICATION_TYPE = U
NORAD_CAT_ID   = 25544
ELEMENT_SET_NO = 999
REV_AT_EPOCH   = 54210
BSTAR          = .22339025E-3
MEAN_MOTION_DOT = .12051E-3
MEAN_MOTION_DDOT = 0

CCSDS_OMM_VERS = 2.0
CREATION_DATE  = 
ORIGINATOR     = 

OBJECT_NAME    = CSS (TIANHE)
OBJECT_ID      = 2021-035A
CENTER_NAME    = EARTH
REF_FRAME      = TEME
TIME_SYSTEM    = UTC
MEAN_ELEMENT_THEORY = SGP/SGP4

EPOCH          = 2025-12-07T23:22:56.643744
MEAN_MOTION    = 15.58863749
ECCENTRICITY   = .00092535
INCLINATION    = 41.4683
RA_OF_ASC_NODE = 45.6321
ARG_OF_PERICENTER = 352.4121
MEAN_ANOMALY   = 7.6575

EPHEMERIS_TYPE = 0
CLASSIFICATION_TYPE = U
NORAD_CAT_ID   = 48274
ELEMENT_SET_NO = 999
REV_AT_EPOCH   = 26328
BSTAR          = .29193568E-3
MEAN_MOTION_DOT = .23028E-3
MEAN_MOTION_DDOT = 0

CCSDS_OMM_VERS = 2.0
CREATION_DATE  = 
ORIGINATOR     = 

OBJECT_NAME    = ISS (NAUKA)
OBJECT_ID      = 2021-066A
CENTER_NAME    = EARTH
REF_FRAME      = TEME
TIME_SYSTEM    = UTC
MEAN_ELEMENT_THEORY = SGP/SGP4

EPOCH          = 2025-12-07T21:32:16.385568
MEAN_MOTION    = 15.49404055
ECCENTRICITY   = .0003425
INCLINATION    = 51.6302
RA_OF_ASC_NODE = 166.4547
ARG_OF_PERICENTER = 217.7386
MEAN_ANOMALY   = 142.3363

EPHEMERIS_TYPE = 0
CLASSIFICATION_TYPE = U
NORAD_CAT_ID   = 49044
ELEMENT_SET_NO = 999
REV_AT_EPOCH   = 23044
BSTAR          = .22339025E-3
MEAN_MOTION_DOT = .12051E-3
MEAN_MOTION_DDOT = 0

CCSDS_OMM_VERS = 2.0
CREATION_DATE  = 
ORIGINATOR     = 

OBJECT_NAME    = FREGAT DEB
OBJECT_ID      = 2011-037PF
CENTER_NAME    = EARTH
REF_FRAME      = TEME
TIME_SYSTEM    = UTC
MEAN_ELEMENT_THEORY = SGP/SGP4

EPOCH          = 2025-12-07T21:00:08.082720
MEAN_MOTION    = 12.34399702
ECCENTRICITY   = .08657467
INCLINATION    = 51.6308
RA_OF_ASC_NODE = 213.8111
ARG_OF_PERICENTER = 213.1718
MEAN_ANOMALY   = 141.1882

EPHEMERIS_TYPE = 0
CLASSIFICATION_TYPE = U
NORAD_CAT_ID   = 49271
ELEMENT_SET_NO = 999
REV_AT_EPOCH   = 20133
BSTAR          = .11538505E-1
MEAN_MOTION_DOT = .5117E-4
MEAN_MOTION_DDOT = 0

CCSDS_OMM_VERS = 2.0
CREATION_DATE  = 
ORIGINATOR     = 

OBJECT_NAME    = CSS (WENTIAN)
OBJECT_ID      = 2022-085A
CENTER_NAME    = EARTH
REF_FRAME      = TEME
TIME_SYSTEM    = UTC
MEAN_ELEMENT_THEORY = SGP/SGP4

EPOCH          = 2025-12-07T23:22:56.643744
MEAN_MOTION    = 15.58863749
ECCENTRICITY   = .00092535
INCLINATION    = 41.4683
RA_OF_ASC_NODE = 45.6321
ARG_OF_PERICENTER = 352.4121
MEAN_ANOMALY   = 7.6575

EPHEMERIS_TYPE = 0
CLASSIFICATION_TYPE = U
NORAD_CAT_ID   = 53239
ELEMENT_SET_NO = 999
REV_AT_EPOCH   = 17384
BSTAR          = .29193568E-3
MEAN_MOTION_DOT = .23028E-3
MEAN_MOTION_DDOT = 0

CCSDS_OMM_VERS = 2.0
CREATION_DATE  = 
ORIGINATOR     = 

OBJECT_NAME    = CSS (MENGTIAN)
OBJECT_ID      = 2022-143A
CENTER_NAME    = EARTH
REF_FRAME      = TEME
TIME_SYSTEM    = UTC
MEAN_ELEMENT_THEORY = SGP/SGP4

EPOCH          = 2025-12-07T23:22:56.643744
MEAN_MOTION    = 15.58863749
ECCENTRICITY   = .00092535
INCLINATION    = 41.4683
RA_OF_ASC_NODE = 45.6321
ARG_OF_PERICENTER = 352.4121
MEAN_ANOMALY   = 7.6575

EPHEMERIS_TYPE = 0
CLASSIFICATION_TYPE = U
NORAD_CAT_ID   = 54216
ELEMENT_SET_NO = 999
REV_AT_EPOCH   = 15864
BSTAR          = .29193568E-3
MEAN_MOTION_DOT = .23028E-3
MEAN_MOTION_DDOT = 0

CCSDS_OMM_VERS = 2.0
CREATION_DATE  = 
ORIGINATOR     = 

OBJECT_NAME    = SOYUZ-MS 27
OBJECT_ID      = 2025-072A
CENTER_NAME    = EARTH
REF_FRAME      = TEME
TIME_SYSTEM    = UTC
MEAN_ELEMENT_THEORY = SGP/SGP4

EPOCH          = 2025-12-07T21:32:16.385568
MEAN_MOTION    = 15.49404055
ECCENTRICITY   = .0003425
INCLINATION    = 51.6302
RA_OF_ASC_NODE = 166.4547
ARG_OF_PERICENTER = 217.7386
MEAN_ANOMALY   = 142.3363

EPHEMERIS_TYPE = 0
CLASSIFICATION_TYPE = U
NORAD_CAT_ID   = 63520
ELEMENT_SET_NO = 999
REV_AT_EPOCH   = 2020
BSTAR          = .22339025E-3
MEAN_MOTION_DOT = .12051E-3
MEAN_MOTION_DDOT = 0

CCSDS_OMM_VERS = 2.0
CREATION_DATE  = 
ORIGINATOR     = 

OBJECT_NAME    = SHENZHOU-20 (SZ-20)
OBJECT_ID      = 2025-082A
CENTER_NAME    = EARTH
REF_FRAME      = TEME
TIME_SYSTEM    = UTC
MEAN_ELEMENT_THEORY = SGP/SGP4

EPOCH          = 2025-12-07T23:22:56.643744
MEAN_MOTION    = 15.58863749
ECCENTRICITY   = .00092535
INCLINATION    = 41.4683
RA_OF_ASC_NODE = 45.6321
ARG_OF_PERICENTER = 352.4121
MEAN_ANOMALY   = 7.6575

EPHEMERIS_TYPE = 0
CLASSIFICATION_TYPE = U
NORAD_CAT_ID   = 63632
ELEMENT_SET_NO = 999
REV_AT_EPOCH   = 25530
BSTAR          = .29193568E-3
MEAN_MOTION_DOT = .23028E-3
MEAN_MOTION_DDOT = 0

CCSDS_OMM_VERS = 2.0
CREATION_DATE  = 
ORIGINATOR     = 

OBJECT_NAME    = PROGRESS-MS 31
OBJECT_ID      = 2025-146A
CENTER_NAME    = EARTH
REF_FRAME      = TEME
TIME_SYSTEM    = UTC
MEAN_ELEMENT_THEORY = SGP/SGP4

EPOCH          = 2025-12-07T21:32:16.385568
MEAN_MOTION    = 15.49404055
ECCENTRICITY   = .0003425
INCLINATION    = 51.6302
RA_OF_ASC_NODE = 166.4547
ARG_OF_PERICENTER = 217.7386
MEAN_ANOMALY   = 142.3363

EPHEMERIS_TYPE = 0
CLASSIFICATION_TYPE = U
NORAD_CAT_ID   = 64751
ELEMENT_SET_NO = 999
REV_AT_EPOCH   = 675
BSTAR          = .22339025E-3
MEAN_MOTION_DOT = .12051E-3
MEAN_MOTION_DDOT = 0

CCSDS_OMM_VERS = 2.0
CREATION_DATE  = 
ORIGINATOR     = 

OBJECT_NAME    = TIANZHOU-9
OBJECT_ID      = 2025-149A
CENTER_NAME    = EARTH
REF_FRAME      = TEME
TIME_SYSTEM    = UTC
MEAN_ELEMENT_THEORY = SGP/SGP4

EPOCH          = 2025-12-07T23:22:56.643744
MEAN_MOTION    = 15.58863749
ECCENTRICITY   = .00092535
INCLINATION    = 41.4683
RA_OF_ASC_NODE = 45.6321
ARG_OF_PERICENTER = 352.4121
MEAN_ANOMALY   = 7.6575

EPHEMERIS_TYPE = 0
CLASSIFICATION_TYPE = U
NORAD_CAT_ID   = 64786
ELEMENT_SET_NO = 999
REV_AT_EPOCH   = 25530
BSTAR          = .29193568E-3
MEAN_MOTION_DOT = .23028E-3
MEAN_MOTION_DDOT = 0

CCSDS_OMM_VERS = 2.0
CREATION_DATE  = 
ORIGINATOR     = 

OBJECT_NAME    = CREW DRAGON 11
OBJECT_ID      = 2025-166A
CENTER_NAME    = EARTH
REF_FRAME      = TEME
TIME_SYSTEM    = UTC
MEAN_ELEMENT_THEORY = SGP/SGP4

EPOCH          = 2025-12-07T21:32:16.385568
MEAN_MOTION    = 15.49404055
ECCENTRICITY   = .0003425
INCLINATION    = 51.6302
RA_OF_ASC_NODE = 166.4547
ARG_OF_PERICENTER = 217.7386
MEAN_ANOMALY   = 142.3363

EPHEMERIS_TYPE = 0
CLASSIFICATION_TYPE = U
NORAD_CAT_ID   = 65077
ELEMENT_SET_NO = 999
REV_AT_EPOCH   = 214
BSTAR          = .22339025E-3
MEAN_MOTION_DOT = .12051E-3
MEAN_MOTION_DDOT = 0

CCSDS_OMM_VERS = 2.0
CREATION_DATE  = 
ORIGINATOR     = 

OBJECT_NAME    = DRAGON CRS-33
OBJECT_ID      = 2025-186A
CENTER_NAME    = EARTH
REF_FRAME      = TEME
TIME_SYSTEM    = UTC
MEAN_ELEMENT_THEORY = SGP/SGP4

EPOCH          = 2025-12-07T21:32:16.385568
MEAN_MOTION    = 15.49404055
ECCENTRICITY   = .0003425
INCLINATION    = 51.6302
RA_OF_ASC_NODE = 166.4547
ARG_OF_PERICENTER = 217.7386
MEAN_ANOMALY   = 142.3363

EPHEMERIS_TYPE = 0
CLASSIFICATION_TYPE = U
NORAD_CAT_ID   = 65304
ELEMENT_SET_NO = 999
REV_AT_EPOCH   = 11
BSTAR          = .22339025E-3
MEAN_MOTION_DOT = .12051E-3
MEAN_MOTION_DDOT = 0

