ISS (ZARYA)             
1 25544U 98067A   25341.89741187  .00012051  00000+0  22339-3 0  9990
2 25544  51.6302 166.4547 0003425 217.7386 142.3363 15.49404055542101
CSS (TIANHE)            
1 48274U 21035A   25341.97426671  .00023028  00000+0  29194-3 0  9995
2 48274  41.4683  45.6321 0009253 352.4121   7.6575 15.58863749263288
ISS (NAUKA)             
1 49044U 21066A   25341.89741187  .00012051  00000+0  22339-3 0  9996
2 49044  51.6302 166.4547 0003425 217.7386 142.3363 15.49404055230443
FREGAT DEB              
1 49271U 11037PF  25341.87509355  .00005117  00000+0  11539-1 0  9995
2 49271  51.6308 213.8111 0865746 213.1718 141.1882 12.34399702201338
CSS (WENTIAN)           
1 53239U 22085A   25341.97426671  .00023028  00000+0  29194-3 0  9998
2 53239  41.4683  45.6321 0009253 352.4121   7.6575 15.58863749173847
CSS (MENGTIAN)          
1 54216U 22143A   25341.97426671  .00023028  00000+0  29194-3 0  9999
2 54216  41.4683  45.6321 0009253 352.4121   7.6575 15.58863749158644
SOYUZ-MS 27             
1 63520U 25072A   25341.89741187  .00012051  00000+0  22339-3 0  9992
2 63520  51.6302 166.4547 0003425 217.7386 142.3363 15.49404055 20209
SHENZHOU-20 (SZ-20)     
1 63632U 25082A   25341.97426671  .00023028  00000+0  29194-3 0  9996
2 63632  41.4683  45.6321 0009253 352.4121   7.6575 15.58863749255307
PROGRESS-MS 31          
1 64751U 25146A   25341.89741187  .00012051  00000+0  22339-3 0  9991
2 64751  51.6302 166.4547 0003425 217.7386 142.3363 15.49404055  6750
TIANZHOU-9              
1 64786U 25149A   25341.97426671  .00023028  00000+0  29194-3 0  9991
2 64786  41.4683  45.6321 0009253 352.4121   7.6575 15.58863749255308
CREW DRAGON 11          
1 65077U 25166A   25341.89741187  .00012051  00000+0  22339-3 0  9995
2 65077  51.6302 166.4547 0003425 217.7386 142.3363 15.49404055  2141
DRAGON CRS-33           
1 65304U 25186A   25341.89741187  .00012051  00000+0  22339-3 0  9990
2 65304  51.6302 166.4547 0003425 217.7386 142.3363 15.49404055   119
